{
"type": "FeatureCollection",
"name": "normprofiel-niwa",
"crs": { "type": "name", "properties": { "name": "urn:ogc:def:crs:EPSG::28992" } },
"features": [
{ "type": "Feature", "properties": { "fid": 1, "id": "Genormeerde_bodem__vlak_.369", "statusleg": "Vastgesteld", "datumvaststelling": "2022-07-04T00:00:00+02:00", "wijzigingsgrond": null, "rwsdienst": "WNZ", "waterlichaam": "Nieuwe Maas", "genormeerd": null, "objectnaam": "Nieuwe Maas", "normtype": "Vaarweg", "normhoogte": -14.5, "gdb_geomattr_data": null }, "geometry": { "type": "MultiLineString", "coordinates": [ [ [ 81556.098672492866172, 434562.644363520201296 ], [ 81556.101800000004005, 434562.676700000010896 ], [ 81615.68399999999383, 434555.075599999981932 ], [ 81745.977599999998347, 434543.793599999975413 ], [ 81832.856100000004517, 434539.9412 ], [ 81915.068100000004051, 434538.744 ], [ 81988.335099999996601, 434541.343 ], [ 82087.7684, 434544.5844 ], [ 82193.051600000006147, 434552.637700000021141 ], [ 82337.3753, 434562.912200000020675 ], [ 82469.061300000001211, 434573.101199999975506 ], [ 82539.647100000001956, 434580.248199999972712 ], [ 82600.952999999994063, 434586.8433 ], [ 82659.382700000001932, 434595.053599999984726 ], [ 82704.824299999992945, 434602.3291999999783 ], [ 82775.0818, 434612.722200000018347 ], [ 82861.862200000003213, 434627.185999999986961 ], [ 82950.925499999997555, 434647.555700000026263 ], [ 83018.392900000006193, 434665.2525 ], [ 83075.906199999997625, 434684.0552 ], [ 83147.79769999999553, 434710.600099999981467 ], [ 83446.908500000005006, 434840.480099999986123 ], [ 83772.963900000002468, 434985.43829999997979 ], [ 83874.525899999993271, 435032.197999999974854 ], [ 83967.163100000005215, 435071.928499999979977 ], [ 84044.962799999993877, 435094.585299999976996 ], [ 84111.851299999994808, 435110.664600000018254 ], [ 84156.874200000005658, 435119.45529999997234 ], [ 84203.463300000003073, 435126.747800000011921 ], [ 84249.649399999994785, 435131.3408 ], [ 84274.57060000000638, 435133.819100000022445 ], [ 84385.499800000005052, 435142.0797 ], [ 84413.869900000005146, 435143.7958000000217 ], [ 84417.005799999998999, 435143.9855 ], [ 84432.703999999997905, 435144.9351 ], [ 84504.92949999999837, 435148.153700000024401 ], [ 84506.017000000007101, 435148.183000000019092 ], [ 84581.84440000000177, 435150.224800000025425 ], [ 84658.783899999994901, 435150.940899999986868 ], [ 84735.724000000001979, 435150.301800000015646 ], [ 84812.64089999999851, 435148.3078 ], [ 84889.510800000003655, 435144.959299999987707 ], [ 84932.00109999999404, 435142.435400000016671 ], [ 84935.780199999993783, 435127.184499999973923 ], [ 84948.20350000000326, 435077.049899999983609 ], [ 85023.264599999994971, 435066.87599999998929 ], [ 85151.450100000001839, 435052.2379 ], [ 85277.003100000001723, 435035.3101 ], [ 85363.802899999995134, 435022.2903 ], [ 85447.2883, 435003.015399999974761 ], [ 85950.213199999998324, 434892.133099999977276 ], [ 86138.601899999994203, 434852.979700000025332 ], [ 86208.274600000004284, 434841.9106 ], [ 86274.691600000005565, 434832.143600000010338 ], [ 86334.471699999994598, 434824.3293999999878 ], [ 86404.641399999993155, 434816.979799999971874 ], [ 86412.0864, 434816.462600000028033 ], [ 86458.391099999993457, 434813.229999999981374 ], [ 86506.150800000003073, 434812.1702 ], [ 86555.810599999997066, 434813.2304 ], [ 86596.7604, 434815.570599999977276 ], [ 86638.710099999996601, 434817.6408 ], [ 86689.58980000000156, 434824.360900000028778 ], [ 86732.649600000004284, 434831.831100000010338 ], [ 86900.738500000006752, 434875.1716 ], [ 87009.927800000004936, 434908.571899999980815 ], [ 87098.087199999994482, 434938.612100000027567 ], [ 87181.4467, 434969.672299999976531 ], [ 87265.506099999998696, 435000.012500000011642 ], [ 87342.755600000004051, 435028.9827 ], [ 87355.319099999993341, 435033.379299999971408 ], [ 87598.683900000003632, 435118.3933 ], [ 87832.132400000002235, 435202.483799999987241 ], [ 88008.271200000002864, 435266.394199999980628 ], [ 88127.890499999994063, 435304.294500000018161 ], [ 88207.64, 435325.834800000011455 ], [ 88269.949600000007194, 435339.395000000018626 ], [ 88297.409499999994296, 435344.26500000001397 ], [ 88321.2221, 435349.10840000002645 ], [ 88393.988899999996647, 435359.895299999974668 ], [ 88483.848400000002584, 435371.54570000001695 ], [ 88565.398000000001048, 435383.0759 ], [ 88627.207599999994272, 435392.73609999998007 ], [ 88897.448699999993551, 435432.1251 ], [ 88942.464099999997416, 435435.997299999988172 ], [ 88987.963499999998021, 435438.901599999982864 ], [ 89032.4948, 435438.901599999982864 ], [ 89076.54210000000603, 435437.449499999987893 ], [ 89121.557499999995343, 435434.0612 ], [ 89270.640700000003562, 435408.891300000017509 ], [ 89305.491299999994226, 435403.082899999979418 ], [ 89340.342000000004191, 435394.8543 ], [ 89348.6587, 435392.673 ], [ 89348.704800000006799, 435392.6594 ], [ 89537.739400000005844, 435358.053499999979977 ], [ 89715.287400000001071, 435318.3176 ], [ 89896.605899999995017, 435273.727200000023004 ], [ 90069.171900000001187, 435227.973300000012387 ], [ 90188.823199999998906, 435194.7043999999878 ], [ 90251.350300000005518, 435174.836100000014994 ], [ 90254.661699999996927, 435173.65769999998156 ], [ 90348.1584, 435153.8323 ], [ 90351.79309999999532, 435153.0504 ], [ 90765.4029, 435064.071999999985565 ], [ 90817.2154, 435053.364599999971688 ], [ 90861.553100000004633, 435047.40590000001248 ], [ 90960.981199999994715, 435039.138700000010431 ], [ 91013.605200000005425, 435037.9118 ], [ 91075.6207, 435038.8785 ], [ 91148.013999999995576, 435043.507600000011735 ], [ 91237.0956, 435051.5919 ], [ 91266.546000000002095, 435055.1286 ], [ 91270.452900000003865, 435055.605900000024121 ], [ 91337.571100000001024, 435063.805600000021514 ], [ 91404.192899999994552, 435073.627800000016578 ], [ 91475.099199999996927, 435086.31160000001546 ], [ 91530.787100000001374, 435096.4927 ], [ 91633.201799999995274, 435120.151300000026822 ], [ 91695.633600000001024, 435137.6166 ], [ 91747.878100000001723, 435153.414800000027753 ], [ 91813.729099999996834, 435179.7746 ], [ 91863.404999999998836, 435201.161199999973178 ], [ 91927.812099999995553, 435233.0724 ], [ 91969.773400000005495, 435255.712999999988824 ], [ 92022.898199999995995, 435284.992299999983516 ], [ 92058.766099999993457, 435306.8321 ], [ 92107.349499999996624, 435338.7623 ], [ 92133.9479, 435356.403 ], [ 92165.613299999997253, 435377.880300000018906 ], [ 92167.987699999997858, 435379.42070000001695 ], [ 92225.813999999998487, 435416.934799999988172 ], [ 92300.791800000006333, 435466.011999999987893 ], [ 92388.731799999994109, 435523.169999999983702 ], [ 92455.788100000005215, 435571.006 ], [ 92491.760800000003655, 435599.847499999974389 ], [ 92527.111799999998766, 435630.7109 ], [ 92564.188899999993737, 435666.521300000022165 ], [ 92595.718599999992875, 435701.012600000016391 ], [ 92623.782300000006217, 435736.618499999982305 ], [ 92650.997099999993225, 435775.1081000000122 ], [ 92651.7896999999939, 435776.2292 ], [ 92658.319699999992736, 435786.522600000025705 ], [ 92668.482900000002701, 435802.701300000015181 ], [ 92688.93739999999525, 435837.055799999972805 ], [ 92710.0199, 435873.391200000012759 ], [ 92727.012199999997392, 435901.354500000015832 ], [ 92747.095000000001164, 435937.722699999983888 ], [ 92765.507299999997485, 435974.646100000012666 ], [ 92782.62390000000596, 436012.112399999983609 ], [ 92793.12850000000617, 436036.786100000026636 ], [ 92847.344800000006217, 436164.102000000013504 ], [ 92899.441300000005867, 436274.474800000025425 ], [ 92952.617700000002515, 436366.29849999997532 ], [ 93020.46020000000135, 436457.140300000028219 ], [ 93094.834099999992759, 436539.261300000012852 ], [ 93214.584600000001956, 436660.4227 ], [ 93347.099700000006123, 436793.173799999989569 ], [ 93385.195999999996275, 436831.4523 ], [ 93386.968900000007125, 436833.246600000013132 ], [ 93443.616299999994226, 436890.5796 ], [ 93473.232600000003004, 436920.1298 ], [ 93500.69550000000163, 436941.244499999971595 ], [ 93538.476899999994203, 436968.024900000018533 ], [ 93562.898499999995693, 436982.2342 ], [ 93579.767200000002049, 436991.1875 ], [ 93610.521900000007008, 437009.6922 ], [ 93669.878100000001723, 437038.2661 ], [ 93719.175700000007055, 437057.6632 ], [ 93780.28190000000177, 437076.6727 ], [ 93860.726800000004005, 437096.048 ], [ 93938.505300000004354, 437108.505599999974947 ], [ 94012.463099999993574, 437115.084299999987707 ], [ 94091.30109999999695, 437115.9987 ], [ 94181.823199999998906, 437107.022500000020955 ], [ 94244.319000000003143, 437095.964199999987613 ], [ 94333.490600000004633, 437072.521699999982957 ], [ 94416.6679, 437041.770499999984168 ], [ 94471.894, 437016.940599999972619 ], [ 94475.2221, 437015.4536 ], [ 94499.694399999993038, 437004.5195 ], [ 94564.325700000001234, 436970.874499999976251 ], [ 94609.210000000006403, 436945.3834 ], [ 94689.902600000001257, 436894.198800000012852 ], [ 94785.756200000003446, 436818.99920000002021 ], [ 94867.545700000002398, 436740.2584 ], [ 94944.692800000004354, 436649.661199999973178 ], [ 95014.586899999994785, 436545.792299999971874 ], [ 95084.614100000006147, 436417.401100000017323 ], [ 95123.3894, 436331.5662 ], [ 95152.5853000000061, 436253.050999999977648 ], [ 95152.961200000005192, 436251.8002 ], [ 95167.922399999995832, 436202.010499999974854 ], [ 95188.36250000000291, 436108.271400000026915 ], [ 95202.138399999996182, 435998.2389 ], [ 95211.614700000005541, 435865.831100000010338 ], [ 95221.1486, 435710.4045 ], [ 95231.080000000001746, 435609.004499999980908 ], [ 95248.9185, 435479.8247 ], [ 95267.151899999997113, 435393.1632 ], [ 95282.801399999996647, 435342.1126 ], [ 95297.577999999994063, 435312.105900000024121 ], [ 95314.774900000003981, 435281.5195 ], [ 95339.1391, 435255.1877 ], [ 95339.133199999996577, 435255.183299999975134 ], [ 95340.7612999999983, 435253.31329999997979 ], [ 95344.508400000006077, 435249.0098 ], [ 95377.363299999997253, 435219.7685 ], [ 95410.01940000000468, 435193.3862 ], [ 95472.402700000006007, 435150.7194 ], [ 95514.768800000005285, 435124.5869 ], [ 95531.600099999996019, 435115.0172 ], [ 95548.675799999997253, 435106.9913 ], [ 95560.171400000006543, 435102.164500000013504 ], [ 95575.871700000003329, 435096.48599999997532 ], [ 95591.981700000003912, 435091.1912 ], [ 95615.214999999996508, 435085.5771 ], [ 95637.752699999997276, 435080.784700000018347 ], [ 95662.689499999993131, 435076.6947 ], [ 95696.646599999992759, 435072.253099999972619 ], [ 95726.6967, 435069.2943 ], [ 95753.392800000001444, 435069.629499999980908 ], [ 95781.108699999997043, 435071.396400000026915 ], [ 95818.090299999996205, 435077.976299999980256 ], [ 95853.549799999993411, 435086.180500000016764 ], [ 95874.507500000006985, 435092.810899999982212 ], [ 95998.912100000001374, 435135.937900000018999 ], [ 96049.318, 435155.027699999976903 ], [ 96080.67949999999837, 435168.5479 ], [ 96084.22269999999844, 435170.075399999972433 ], [ 96172.425300000002608, 435208.100199999986216 ], [ 96308.36250000000291, 435266.7036 ], [ 96405.924100000003818, 435313.363100000016857 ], [ 96554.977100000003702, 435381.581100000010338 ], [ 96669.445300000006682, 435440.679300000017975 ], [ 96703.3312, 435456.645100000023376 ], [ 96734.4807, 435470.4975 ], [ 96795.154599999994389, 435495.3335 ], [ 96874.444799999997485, 435527.2842 ], [ 96978.967900000003283, 435567.693000000028405 ], [ 96981.363200000007055, 435568.29739999998128 ], [ 96984.652000000001863, 435569.2183 ], [ 97051.21020000000135, 435587.856199999980163 ], [ 97138.729399999996531, 435608.0001 ], [ 97253.970499999995809, 435630.449199999973644 ], [ 97306.079500000007101, 435638.1557 ], [ 97373.857000000003609, 435640.811999999976251 ], [ 97444.364499999996042, 435639.083800000022165 ], [ 97494.6676, 435639.0145 ], [ 97498.358900000006543, 435639.031299999973271 ], [ 97518.022400000001653, 435639.120799999975134 ], [ 97632.7635, 435639.4521 ], [ 97685.1587, 435638.537200000020675 ], [ 97737.088399999993271, 435634.84240000002319 ], [ 97811.80109999999695, 435628.0945 ], [ 97885.58169999999518, 435619.0882 ], [ 97999.780199999993783, 435603.57929999998305 ], [ 98003.521299999993062, 435603.102100000018254 ], [ 98046.173500000004424, 435597.661499999987427 ], [ 98100.607999999992899, 435590.717899999988731 ], [ 98149.671799999996438, 435584.4594 ], [ 98254.789399999994203, 435571.050899999972899 ], [ 98312.174700000003213, 435562.750600000028498 ], [ 98390.1532, 435550.0602 ], [ 98544.002399999997579, 435523.251500000013039 ], [ 98691.694699999992736, 435495.631700000027195 ], [ 98821.4859, 435467.606000000028871 ], [ 98957.017099999997299, 435433.450399999972433 ], [ 98962.304099999993923, 435431.820400000025984 ], [ 98965.810800000006566, 435430.739200000010896 ], [ 99043.284700000003795, 435406.853200000012293 ], [ 99206.187999999994645, 435361.8969 ], [ 99289.285999999992782, 435335.672299999976531 ], [ 99368.831399999995483, 435309.027400000020862 ], [ 99413.351800000004005, 435291.884000000020023 ], [ 99429.043000000005122, 435285.479600000020582 ], [ 99445.0965, 435278.927299999981187 ], [ 99472.490300000004936, 435266.510499999974854 ], [ 99505.5616, 435251.066999999980908 ], [ 99573.561499999996158, 435210.4543999999878 ], [ 99576.104699999996228, 435208.825499999977183 ], [ 99615.526299999997718, 435183.575000000011642 ], [ 99673.819699999992736, 435138.5036 ], [ 99677.686700000005658, 435135.4878 ], [ 99715.642500000001746, 435105.887500000011642 ], [ 99772.467799999998533, 435056.142999999981839 ], [ 99839.358699999997043, 434986.915099999983795 ], [ 99889.185200000007171, 434931.504000000015367 ], [ 99901.297000000005937, 434918.772600000025705 ], [ 99903.150699999998324, 434916.824100000027101 ], [ 100011.7078, 434802.713600000017323 ], [ 100100.6556, 434703.504100000020117 ], [ 100193.5458, 434610.5822 ], [ 100241.6406, 434567.4141 ], [ 100317.0315, 434505.166299999982584 ], [ 100359.9338, 434471.5258 ], [ 100426.09, 434427.740800000028685 ], [ 100500.8281, 434378.685899999982212 ], [ 100550.2004, 434352.451300000015181 ], [ 100553.4001, 434350.7511 ], [ 100643.5522, 434302.847499999974389 ], [ 100690.9372, 434279.0282 ], [ 100734.8181, 434259.678399999975227 ], [ 100902.7148, 434193.196699999971315 ], [ 101035.6178, 434139.3237 ], [ 101196.1523, 434082.56339999998454 ], [ 101347.0548, 434034.041099999973085 ], [ 101470.6503, 433998.2978 ], [ 101479.7904, 433995.7119 ], [ 101483.3811, 433994.743499999982305 ], [ 101620.3382, 433957.806600000010803 ], [ 101725.8636, 433929.984500000020489 ], [ 101816.5776, 433902.648500000010245 ], [ 101892.1603, 433881.699299999978393 ], [ 101941.5361, 433869.9523 ], [ 101986.7866, 433860.6423 ], [ 102063.8179, 433848.121800000022631 ], [ 102163.3869, 433830.6383 ], [ 102199.2406, 433824.342699999979232 ], [ 102282.8094, 433811.554300000017975 ], [ 102282.794165914092446, 433811.424596942437347 ] ] ] } },
{ "type": "Feature", "properties": { "fid": 1, "id": "Genormeerde_bodem__vlak_.369", "statusleg": "Vastgesteld", "datumvaststelling": "2022-07-04T00:00:00+02:00", "wijzigingsgrond": null, "rwsdienst": "WNZ", "waterlichaam": "Nieuwe Maas", "genormeerd": null, "objectnaam": "Nieuwe Maas", "normtype": "Vaarweg", "normhoogte": -14.5, "gdb_geomattr_data": null }, "geometry": { "type": "MultiLineString", "coordinates": [ [ [ 102259.230545448168414, 433612.853526396036614 ], [ 102198.9156, 433621.521400000026915 ], [ 101972.3229, 433655.06 ], [ 101905.7766, 433667.78090000001248 ], [ 101856.9291, 433679.974800000025425 ], [ 101801.4571, 433696.485700000019278 ], [ 101760.9953, 433710.07909999997355 ], [ 101686.4326, 433735.129000000015367 ], [ 101589.7967, 433766.635699999984354 ], [ 101483.9412, 433799.816400000010617 ], [ 101439.3095, 433814.5145 ], [ 101435.7579, 433815.684100000013132 ], [ 101336.9953, 433848.208700000017416 ], [ 101238.9881, 433879.151300000026822 ], [ 101125.2192, 433912.5918 ], [ 100952.555, 433961.82819999998901 ], [ 100813.8334, 434005.9855 ], [ 100744.6508, 434027.8492 ], [ 100672.3812, 434054.2021 ], [ 100634.3214, 434070.656399999978021 ], [ 100569.6484, 434100.844800000020768 ], [ 100473.5134, 434149.8492 ], [ 100473.3872, 434149.9227 ], [ 100470.3871, 434151.67070000001695 ], [ 100408.816, 434186.0846 ], [ 100363.2248, 434214.1081000000122 ], [ 100285.5235, 434269.562900000018999 ], [ 100208.066, 434328.880300000018906 ], [ 100117.2782, 434403.23489999998128 ], [ 100071.2405, 434444.276599999982864 ], [ 100033.1995, 434487.544500000018161 ], [ 99972.13310000000638, 434562.396100000012666 ], [ 99899.683600000003935, 434647.9533 ], [ 99785.204100000002654, 434780.440599999972619 ], [ 99766.4574, 434799.5207 ], [ 99764.473800000007031, 434801.539600000018254 ], [ 99662.551600000006147, 434905.2744 ], [ 99623.846000000005006, 434938.9155 ], [ 99548.043399999995017, 434994.7354 ], [ 99519.022899999996298, 435014.374499999976251 ], [ 99482.710900000005495, 435037.156100000021979 ], [ 99393.348899999997229, 435086.121700000017881 ], [ 99360.64440000000468, 435101.785099999979138 ], [ 99328.834300000002258, 435114.532100000011269 ], [ 99282.864499999996042, 435128.8519 ], [ 99242.373399999996764, 435140.617199999978766 ], [ 99186.804300000003423, 435153.926800000015646 ], [ 99071.492299999998068, 435180.153999999980442 ], [ 98898.479399999996531, 435219.627199999988079 ], [ 98894.915500000002794, 435220.440300000016578 ], [ 98704.391900000002352, 435254.785199999983888 ], [ 98569.743300000001909, 435279.802299999981187 ], [ 98422.017099999997299, 435304.4557 ], [ 98266.247600000002421, 435325.412300000025425 ], [ 98177.482000000003609, 435336.2477 ], [ 98031.474199999996927, 435352.9229 ], [ 97991.549, 435357.044600000022911 ], [ 97987.82829999999376, 435357.428699999989476 ], [ 97918.968299999993178, 435364.537499999976717 ], [ 97759.047099999996135, 435379.689000000013039 ], [ 97633.228000000002794, 435387.7182 ], [ 97577.7316, 435390.658700000029057 ], [ 97547.205300000001444, 435391.551700000010896 ], [ 97507.977599999998347, 435390.828800000017509 ], [ 97504.050799999997253, 435390.756400000012945 ], [ 97411.993100000006962, 435386.963999999978114 ], [ 97329.978900000001886, 435380.918300000019372 ], [ 97316.420800000007148, 435379.423400000028778 ], [ 97239.87609999999404, 435370.983499999972992 ], [ 97151.940400000006775, 435353.400299999979325 ], [ 97073.790900000007241, 435331.224800000025425 ], [ 97070.5377, 435330.301700000010896 ], [ 97004.310800000006566, 435305.050500000012107 ], [ 96947.855299999995623, 435283.524900000018533 ], [ 96864.7693, 435248.2562 ], [ 96810.871299999998882, 435223.951300000015181 ], [ 96766.051900000005844, 435203.6656 ], [ 96668.49210000000312, 435157.532 ], [ 96547.799700000003213, 435102.568399999989197 ], [ 96421.020600000003469, 435041.373499999986961 ], [ 96327.278699999995297, 434998.744699999981094 ], [ 96234.176600000006147, 434960.364699999976438 ], [ 96174.728000000002794, 434938.615899999975227 ], [ 96171.558699999994133, 434937.456499999971129 ], [ 96119.916800000006333, 434918.5637 ], [ 95982.345799999995506, 434871.852399999974295 ], [ 95929.700299999996787, 434855.489799999981187 ], [ 95866.093699999997625, 434839.1287 ], [ 95833.723499999992782, 434833.042200000025332 ], [ 95791.395699999993667, 434826.090900000010151 ], [ 95748.444199999998091, 434824.354600000020582 ], [ 95719.464999999996508, 434824.760699999984354 ], [ 95681.171799999996438, 434826.017600000021048 ], [ 95662.77740000000631, 434827.51779999997234 ], [ 95629.884000000005472, 434830.200499999977183 ], [ 95596.688200000004144, 434835.261699999973644 ], [ 95563.012400000006892, 434843.92239999998128 ], [ 95509.963600000002771, 434859.3638 ], [ 95453.294899999993504, 434879.768999999971129 ], [ 95414.716799999994691, 434893.660199999983888 ], [ 95367.627800000002026, 434915.22029999998631 ], [ 95338.010699999998906, 434930.3638 ], [ 95299.501799999998184, 434953.045099999988452 ], [ 95272.044999999998254, 434972.138700000010431 ], [ 95242.6005, 434998.203900000022259 ], [ 95220.266799999997602, 435019.5896 ], [ 95151.320099999997183, 435088.744499999971595 ], [ 95138.079100000002654, 435102.4805 ], [ 95136.359400000001187, 435104.2645 ], [ 95136.329700000002049, 435104.242399999988265 ], [ 95119.087400000003981, 435125.8237 ], [ 95095.25449999999546, 435158.129100000020117 ], [ 95073.933399999994435, 435198.3579 ], [ 95047.596099999995204, 435257.2649 ], [ 95025.099100000006729, 435324.552099999971688 ], [ 95009.550499999997555, 435390.1101 ], [ 94995.750499999994645, 435465.1178 ], [ 94977.0429, 435607.836000000010245 ], [ 94967.106499999994412, 435735.755799999984447 ], [ 94958.316699999995762, 435877.6481 ], [ 94950.835999999995693, 435967.9597 ], [ 94937.890700000003562, 436049.944499999983236 ], [ 94923.206099999995786, 436128.483799999987241 ], [ 94907.051999999996042, 436184.1126 ], [ 94906.629, 436185.569399999978486 ], [ 94877.492400000002817, 436262.081300000019837 ], [ 94823.2267, 436380.9485 ], [ 94788.1591000000044, 436440.642700000025798 ], [ 94740.230299999995623, 436506.7634 ], [ 94690.322499999994761, 436565.943900000012945 ], [ 94631.710600000005797, 436622.908500000019558 ], [ 94573.191399999996065, 436669.362199999974109 ], [ 94460.281099999992875, 436745.121700000017881 ], [ 94411.605200000005425, 436773.2391 ], [ 94390.980500000005122, 436782.174799999978859 ], [ 94387.862699999997858, 436783.5256 ], [ 94348.645099999994272, 436801.863200000021607 ], [ 94314.365600000004633, 436817.6374 ], [ 94259.248999999996158, 436836.100199999986216 ], [ 94194.957500000004075, 436852.018600000010338 ], [ 94148.492400000002817, 436861.4352 ], [ 94087.687300000005052, 436864.9324 ], [ 94028.717499999998836, 436863.365700000023935 ], [ 93980.7408, 436859.43670000002021 ], [ 93924.901800000006915, 436852.263099999981932 ], [ 93887.309800000002724, 436846.492000000027474 ], [ 93851.056400000001304, 436837.674799999978859 ], [ 93825.910900000002584, 436829.994 ], [ 93793.5904, 436819.046199999982491 ], [ 93760.030499999993481, 436804.636500000022352 ], [ 93728.976599999994505, 436784.640399999974761 ], [ 93702.8845, 436770.986199999984819 ], [ 93671.222299999993993, 436751.510499999974854 ], [ 93631.168900000004214, 436720.3014 ], [ 93621.235400000005029, 436711.120500000019092 ], [ 93581.17269999999553, 436673.907200000016019 ], [ 93559.869099999996251, 436653.846299999975599 ], [ 93558.066900000005262, 436652.149099999980535 ], [ 93549.353300000002491, 436643.9289 ], [ 93493.704899999996996, 436589.213999999978114 ], [ 93439.615300000004936, 436532.446400000015274 ], [ 93399.75, 436491.723999999987427 ], [ 93351.328999999997905, 436443.7769 ], [ 93297.337799999993877, 436390.008299999986775 ], [ 93255.470100000005914, 436347.350099999981467 ], [ 93220.290800000002491, 436306.473899999982677 ], [ 93181.149999999994179, 436249.7158 ], [ 93154.162400000001071, 436203.066600000020117 ], [ 93117.905799999993178, 436142.711300000024494 ], [ 93075.803400000004331, 436070.038600000028964 ], [ 93037.173200000004726, 435999.5626 ], [ 93012.971300000004703, 435950.981900000013411 ], [ 92976.862299999993411, 435940.4889 ], [ 92944.729200000001583, 435929.534800000023097 ], [ 92932.460600000005797, 435925.434200000017881 ], [ 92925.2218, 435923.131899999978486 ], [ 92916.258400000006077, 435904.6362 ], [ 92906.5, 435884.5 ], [ 92882.5, 435846.346100000024308 ], [ 92857.735400000005029, 435805.7353 ], [ 92803.166800000006333, 435728.8333 ], [ 92781.5, 435694.5 ], [ 92769.5, 435671.1667 ], [ 92757.77270000000135, 435653.227300000027753 ], [ 92760.5, 435644.299999999988358 ], [ 92769.919200000003912, 435634.643999999971129 ], [ 92779.54769999999553, 435607.363300000026356 ], [ 92777.328999999997905, 435594.909700000018347 ], [ 92773.282399999996414, 435572.196400000015274 ], [ 92764.486900000003516, 435564.37579999997979 ], [ 92719.94199999999546, 435527.809799999988172 ], [ 92664.243799999996554, 435481.102100000018254 ], [ 92601.225999999995111, 435428.6301 ], [ 92550.962700000003679, 435391.25099999998929 ], [ 92473.3217, 435337.257600000011735 ], [ 92410.007299999997485, 435294.8028 ], [ 92342.473899999997229, 435251.485600000014529 ], [ 92281.325599999996484, 435210.182199999981094 ], [ 92278.893200000005891, 435208.5392 ], [ 92209.9032, 435162.767999999981839 ], [ 92176.176000000006752, 435141.3583000000217 ], [ 92134.303700000004028, 435115.712600000028033 ], [ 92091.369399999995949, 435090.1017 ], [ 92049.657999999995809, 435067.452999999979511 ], [ 92010.998099999997066, 435048.206699999980628 ], [ 91937.324600000007194, 435014.097699999983888 ], [ 91894.7745, 434994.478699999977835 ], [ 91854.6017, 434976.7831 ], [ 91787.849499999996624, 434953.455100000021048 ], [ 91709.4761, 434930.5085 ], [ 91609.606700000003912, 434906.266 ], [ 91517.744000000006054, 434887.76510000001872 ], [ 91443.93399999999383, 434876.177299999981187 ], [ 91352.659400000004098, 434864.1619 ], [ 91293.4669, 434857.151399999973364 ], [ 91289.805900000006659, 434856.717799999983981 ], [ 91268.964300000006915, 434854.3997 ], [ 91214.233099999997648, 434846.689000000013039 ], [ 91129.6829, 434839.456599999975879 ], [ 91062.82050000000163, 434835.646699999982957 ], [ 90997.99659999999858, 434836.773600000014994 ], [ 90923.366599999993923, 434840.223899999982677 ], [ 90829.768599999995786, 434850.8016 ], [ 90724.045800000007148, 434869.2829 ], [ 90598.1976, 434893.9288 ], [ 90491.3563, 434916.4498 ], [ 90369.414499999998952, 434941.96840000001248 ], [ 90302.876399999993737, 434955.968500000017229 ], [ 90298.972899999993388, 434956.789800000027753 ], [ 89608.529299999994691, 435105.011899999983143 ], [ 89608.2846, 435105.5467 ], [ 89590.209700000006706, 435109.361800000013318 ], [ 89548.615399999995134, 435118.141200000012759 ], [ 89483.18739999999525, 435132.0342 ], [ 89361.984899999995832, 435158.6202 ], [ 89313.835900000005495, 435168.464700000011362 ], [ 89247.955400000006193, 435181.929699999978766 ], [ 89176.735700000004726, 435194.6493 ], [ 89118.1593, 435203.9573 ], [ 89104.996, 435206.049 ], [ 89062.191200000001118, 435210.9475 ], [ 89037.276299999997718, 435213.798699999984819 ], [ 88956.816699999995762, 435216.8383 ], [ 88872.86710000000312, 435216.957999999984168 ], [ 88798.927500000005239, 435213.397699999972247 ], [ 88711.868000000002212, 435202.457400000013877 ], [ 88624.198499999998603, 435187.617099999974016 ], [ 88537.438999999998487, 435173.176900000020396 ], [ 88446.103600000002189, 435156.991099999984726 ], [ 88398.509900000004563, 435148.6298 ], [ 88365.147299999996903, 435142.522899999981746 ], [ 88345.770799999998417, 435138.98220000002766 ], [ 88279.950400000001537, 435126.2661 ], [ 88188.490999999994528, 435105.425800000026356 ], [ 88118.051399999996647, 435086.2956000000122 ], [ 88026.471999999994296, 435056.395399999979418 ], [ 87912.352700000003097, 435016.4851 ], [ 87772.383700000005774, 434965.924799999978859 ], [ 87602.644799999994575, 434906.2043999999878 ], [ 87409.8508, 434839.747800000011921 ], [ 87375.696299999995972, 434827.953800000017509 ], [ 87322.706600000004983, 434809.363699999987148 ], [ 87268.997000000003027, 434790.143600000010338 ], [ 87189.0475, 434762.293400000024121 ], [ 87121.127999999996973, 434738.113200000021607 ], [ 87054.508400000006077, 434716.113100000016857 ], [ 86980.178899999998976, 434694.642899999977089 ], [ 86857.569699999992736, 434663.292499999981374 ], [ 86753.41030000000319, 434639.1422 ], [ 86680.110700000004726, 434625.761899999983143 ], [ 86619.121100000003935, 434618.9217 ], [ 86570.361399999994319, 434616.391500000027008 ], [ 86500.881699999998091, 434617.331200000015087 ], [ 86438.111999999993714, 434620.2009 ], [ 86425.538499999995111, 434621.067800000018906 ], [ 86399.972200000003795, 434622.8308 ], [ 86328.212599999998929, 434629.9804 ], [ 86274.041299999997136, 434638.102000000013504 ], [ 86189.392200000002049, 434653.7291 ], [ 86082.604099999996834, 434677.8211 ], [ 85431.45690000000468, 434847.1163 ], [ 85415.158200000005309, 434851.37 ], [ 85304.670800000007148, 434878.528 ], [ 85217.669500000003609, 434888.743499999982305 ], [ 85081.296799999996438, 434904.755200000014156 ], [ 85004.623699999996461, 434913.759199999971315 ], [ 84995.103700000006938, 434914.877199999988079 ], [ 84582.374500000005355, 434934.9019 ], [ 84525.193799999993644, 434937.676199999987148 ], [ 84476.531000000002678, 434940.3504 ], [ 84435.010999999998603, 434941.010400000028312 ], [ 84390.301500000001397, 434941.71999999997206 ], [ 84325.481799999994109, 434940.999699999985751 ], [ 84267.482199999998556, 434937.629499999980908 ], [ 84227.5824, 434933.939300000027288 ], [ 84156.122900000002119, 434920.098999999987427 ], [ 84070.473400000002584, 434899.278700000024401 ], [ 83969.1541, 434868.528400000010151 ], [ 83893.724700000006123, 434842.378199999977369 ], [ 83818.905199999993783, 434812.528 ], [ 83741.305800000001909, 434777.467799999983981 ], [ 83642.196500000005472, 434735.717599999974482 ], [ 83554.9771999999939, 434699.3174 ], [ 83505.741599999993923, 434678.096200000029057 ], [ 83503.327600000004168, 434677.057299999985844 ], [ 83414.91830000000482, 434638.157 ], [ 83330.818899999998393, 434602.0968 ], [ 83177.580100000006496, 434537.316400000010617 ], [ 83081.160799999997835, 434495.6262 ], [ 83010.611300000004121, 434467.906000000017229 ], [ 82911.101999999998952, 434439.995700000028592 ], [ 82839.76249999999709, 434421.375500000023749 ], [ 82781.942899999994552, 434408.7452 ], [ 82734.548899999994319, 434401.0636 ], [ 82710.803400000004331, 434397.215000000025611 ], [ 82633.853799999997136, 434389.374599999981001 ], [ 82559.188899999993737, 434381.9766 ], [ 82443.938899999993737, 434371.7694 ], [ 82360.353099999992992, 434363.504299999971408 ], [ 82267.033599999995204, 434354.0576 ], [ 82169.077099999994971, 434346.264199999975972 ], [ 82087.918000000005122, 434341.422100000025239 ], [ 81992.236699999994016, 434340.059100000013132 ], [ 81910.084000000002561, 434339.252800000016578 ], [ 81848.474499999996624, 434339.2734 ], [ 81781.277499999996508, 434342.479700000025332 ], [ 81750.56260000000475, 434344.7403 ], [ 81707.648100000005797, 434347.898700000019744 ], [ 81691.872900000002119, 434348.8641 ], [ 81637.11, 434352.2155 ], [ 81537.166124916286208, 434365.707061615772545 ] ] ] } }
]
}
