{
"type": "FeatureCollection",
"name": "bakenlijn-spui-1006-1012",
"crs": { "type": "name", "properties": { "name": "urn:ogc:def:crs:EPSG::28992" } },
"features": [
{ "type": "Feature", "properties": { "id": "Genormeerde_bodem__vlak_.238", "statusleg": "Vastgesteld", "datumvasts": "2022-07-04T00:00:00", "wijzigings": null, "rwsdienst": "WNZ", "waterlicha": "Spui", "genormeerd": null, "objectnaam": "Spui", "normtype": "Vaarweg", "normhoogte": -3.3, "gdb_geomat": null }, "geometry": { "type": "MultiLineString", "coordinates": [ [ [ 79900.889759710000362, 424370.315747180138715 ], [ 79899.191200000001118, 424368.347300000023097 ], [ 79899.06359999999404, 424368.207999999984168 ], [ 79897.872799999997369, 424366.90779999998631 ], [ 79840.8413, 424308.2231 ], [ 79838.388099999996484, 424305.9423 ], [ 79830.5533, 424301.0551 ], [ 79752.591799999994691, 424266.4831000000122 ], [ 79743.854000000006636, 424263.9779 ], [ 79665.449900000006892, 424252.843899999978021 ], [ 79654.425099999993108, 424253.139299999980722 ], [ 79572.429099999993923, 424269.309300000022631 ], [ 79568.03179999999702, 424270.497099999978673 ], [ 79451.817899999994552, 424310.673 ], [ 79312.38289999999688, 424357.0233 ], [ 79307.98399999999674, 424358.485800000024028 ], [ 79130.699200000002747, 424409.449199999973644 ], [ 78981.316300000005867, 424434.5051 ], [ 78981.182, 424434.528 ], [ 78820.16710000000603, 424462.219800000020768 ], [ 78699.268299999996088, 424473.1619 ], [ 78694.845000000001164, 424473.867199999978766 ], [ 78567.471099999995204, 424503.168899999989662 ], [ 78464.425900000002002, 424526.425899999972899 ], [ 78359.838900000002468, 424549.140300000028219 ], [ 78357.836200000005192, 424549.641300000017509 ], [ 78241.615900000004331, 424582.612000000022817 ], [ 78174.057199999995646, 424597.72009999997681 ], [ 78086.219899999996414, 424608.757999999972526 ], [ 78020.806899999995949, 424613.378000000026077 ], [ 77952.987899999992806, 424612.993100000021514 ], [ 77879.499200000005658, 424597.848300000012387 ], [ 77812.86689999999362, 424577.472200000018347 ], [ 77753.843299999993178, 424553.506899999978486 ], [ 77676.39419999999518, 424516.004200000024866 ], [ 77612.016900000002352, 424477.104 ], [ 77536.733900000006543, 424419.4742 ], [ 77518.350300000005518, 424401.146200000017416 ], [ 77480.280100000003586, 424363.19 ], [ 77429.915900000007241, 424292.073299999989104 ], [ 77387.2362, 424197.395000000018626 ], [ 77387.0579, 424197.005200000014156 ], [ 77350.757199999992736, 424119.1912 ], [ 77350.208299999998417, 424118.070300000021234 ], [ 77290.038100000005215, 424000.8701 ], [ 77288.428, 423998.07819999998901 ], [ 77210.9188, 423877.6861 ], [ 77209.66710000000603, 423875.877900000021327 ], [ 77106.929000000003725, 423737.504200000024866 ], [ 77106.8171, 423737.3543 ], [ 76972.433300000004238, 423558.486900000018068 ], [ 76838.074800000002142, 423373.63 ], [ 76729.318899999998393, 423196.96999999997206 ], [ 76706.285499999998137, 423157.457400000013877 ], [ 76632.405199999993783, 423030.718999999982771 ], [ 76631.295899999997346, 423028.946899999980815 ], [ 76614.637900000001537, 423004.129100000020117 ], [ 76508.722200000003795, 422846.3332 ], [ 76487.78519999999844, 422812.609400000015739 ], [ 76424.997399999992922, 422711.474800000025425 ], [ 76349.930300000007264, 422561.081200000015087 ], [ 76348.962199999994482, 422559.2831 ], [ 76282.692599999994854, 422444.8321 ], [ 76281.66030000000319, 422443.1654 ], [ 76189.44550000000163, 422303.71750000002794 ], [ 76187.290200000003097, 422300.816899999976158 ], [ 76125.876999999993131, 422226.984699999971781 ], [ 76121.170599999997648, 422222.358499999972992 ], [ 76065.572199999995064, 422177.705399999977089 ], [ 76061.593599999992875, 422174.963600000017323 ], [ 75988.4562, 422132.101399999985006 ], [ 75982.541800000006333, 422129.379599999985658 ], [ 75931.8419, 422111.8724 ], [ 75924.280100000003586, 422110.221599999989849 ], [ 75846.23399999999674, 422102.59529999998631 ], [ 75835.2396, 422103.3703 ], [ 75764.683399999994435, 422120.4988 ], [ 75757.878100000001723, 422122.9681 ], [ 75699.836200000005192, 422151.5785 ], [ 75695.529299999994691, 422154.124300000024959 ], [ 75631.3462, 422198.9571 ], [ 75627.6385, 422201.968600000021979 ], [ 75573.297000000005937, 422253.061999999976251 ], [ 75499.7841000000044, 422315.2082 ], [ 75437.190300000002026, 422366.3433 ], [ 75383.146299999993062, 422406.036199999973178 ], [ 75307.756599999993341, 422450.630799999984447 ], [ 75219.233300000007148, 422491.738399999972899 ], [ 75218.885299999994459, 422491.902500000025611 ], [ 75117.038861511551659, 422540.648642744519748 ] ] ] } }
]
}
