{
"type": "FeatureCollection",
"name": "normprofiel-spui",
"crs": { "type": "name", "properties": { "name": "urn:ogc:def:crs:EPSG::28992" } },
"features": [
{ "type": "Feature", "properties": { "id": "Genormeerde_bodem__vlak_.238", "statusleg": "Vastgesteld", "datumvasts": "2022/07/04 00:00:00.000", "wijzigings": null, "rwsdienst": "WNZ", "waterlicha": "Spui", "genormeerd": null, "objectnaam": "Spui", "normtype": "Vaarweg", "normhoogte": -3.3, "gdb_geomat": null }, "geometry": { "type": "MultiLineString", "coordinates": [ [ [ 73096.481784128671279, 423483.316473225713708 ], [ 73097.434699999997974, 423484.2415 ], [ 73388.98750000000291, 423258.774800000013784 ], [ 73815.414099999994505, 423040.415199999988545 ], [ 73925.178, 423011.223799999977928 ], [ 73927.285799999997835, 423010.587300000013784 ], [ 74111.958499999993364, 422948.0195 ], [ 74251.68399999999383, 422910.5307 ], [ 74253.6673, 422909.9313 ], [ 74349.6587, 422877.59529999998631 ], [ 74464.655400000003283, 422844.00079999997979 ], [ 74465.335699999995995, 422843.7941 ], [ 74564.912899999995716, 422812.3603 ], [ 74566.362699999997858, 422811.8654 ], [ 74652.486600000003818, 422780.2131 ], [ 74764.71929999999702, 422754.835399999981746 ], [ 74765.152700000006007, 422754.73430000001099 ], [ 74852.3315, 422733.7819 ], [ 74856.7353, 422732.391200000012759 ], [ 74943.9562, 422697.9658 ], [ 74946.408299999995506, 422696.880899999989197 ], [ 74990.3983, 422675.239300000015646 ], [ 75035.375499999994645, 422653.112100000027567 ], [ 75115.617199999993318, 422614.499300000024959 ], [ 75247.205199999996694, 422551.518099999986589 ], [ 75337.04330000000482, 422509.799999999988358 ], [ 75339.94539999999688, 422508.272600000025705 ], [ 75418.159799999993993, 422462.007099999987986 ], [ 75420.893200000005891, 422460.201300000015181 ], [ 75476.944199999998091, 422419.0344 ], [ 75478.287500000005821, 422417.993499999982305 ], [ 75541.7543, 422366.145100000023376 ], [ 75542.181200000006356, 422365.7903 ], [ 75616.5717, 422302.902300000016112 ], [ 75617.871899999998277, 422301.742900000012014 ], [ 75671.103700000006938, 422251.692900000023656 ], [ 75731.267099999997299, 422209.668 ], [ 75783.792400000005728, 422183.7769 ], [ 75845.378200000006473, 422168.826 ], [ 75913.983099999997648, 422175.52970000001369 ], [ 75957.907500000001164, 422190.6973 ], [ 76026.132700000001932, 422230.680700000026263 ], [ 76077.256699999998091, 422271.7404 ], [ 76135.392000000007101, 422341.631799999973737 ], [ 76226.0677, 422478.7523 ], [ 76291.334000000002561, 422591.4706 ], [ 76366.627999999996973, 422742.3187 ], [ 76368.118000000002212, 422744.987000000022817 ], [ 76429.8903, 422844.485900000028778 ], [ 76452.959000000002561, 422881.6435 ], [ 76453.5953, 422882.628900000010617 ], [ 76557.413199999995413, 423037.299699999974109 ], [ 76575.912899999995716, 423064.86099999997532 ], [ 76650.368499999996857, 423192.5868 ], [ 76672.499200000005658, 423230.551199999987148 ], [ 76672.907099999996717, 423231.232100000022911 ], [ 76782.534899999998743, 423409.308000000019092 ], [ 76783.942299999995157, 423411.409900000027847 ], [ 76919.199099999997998, 423597.50199999997858 ], [ 76919.509900000004563, 423597.922000000020489 ], [ 77053.993900000001304, 423776.923300000024028 ], [ 77156.0202, 423914.338899999973364 ], [ 77232.060899999996764, 424032.449100000027101 ], [ 77291.209199999997509, 424147.659099999989849 ], [ 77327.155100000003586, 424224.7132 ], [ 77371.057199999995646, 424322.1042 ], [ 77374.211200000005192, 424327.614899999985937 ], [ 77428.050900000002002, 424403.638099999981932 ], [ 77431.681899999995949, 424407.935300000011921 ], [ 77467.37510000000475, 424443.522 ], [ 77491.662200000006123, 424467.736199999984819 ], [ 77494.9029, 424470.570799999986775 ], [ 77573.338900000002468, 424530.6139 ], [ 77576.331099999995786, 424532.654099999985192 ], [ 77643.569300000002841, 424573.2832 ], [ 77646.254199999995762, 424574.7402 ], [ 77726.049100000003818, 424613.378299999982119 ], [ 77728.016099999993457, 424614.253000000026077 ], [ 77789.397299999996903, 424639.176099999982398 ], [ 77792.162100000001374, 424640.158 ], [ 77861.675900000002002, 424661.414999999979045 ], [ 77864.665099999998347, 424662.178200000023935 ], [ 77942.869200000001001, 424678.294999999983702 ], [ 77949.342999999993481, 424678.973799999977928 ], [ 78021.690000000002328, 424679.384100000024773 ], [ 78024.2022, 424679.3029 ], [ 78091.767000000007101, 424674.530299999983981 ], [ 78093.556200000006356, 424674.354999999981374 ], [ 78183.842900000003283, 424663.009299999976065 ], [ 78186.930200000002515, 424662.471299999975599 ], [ 78256.928199999994831, 424646.817900000023656 ], [ 78258.732900000002701, 424646.3603 ], [ 78374.855299999995623, 424613.4179 ], [ 78478.564199999993434, 424590.893800000019837 ], [ 78478.825899999996182, 424590.8359 ], [ 78582.068899999998393, 424567.534099999989849 ], [ 78582.2019, 424567.504000000015367 ], [ 78707.453200000003562, 424538.690899999986868 ], [ 78827.432199999995646, 424527.8319 ], [ 78830.05109999999695, 424527.4889 ], [ 78992.3012000000017, 424499.584299999987707 ], [ 79143.469899999996414, 424474.2292 ], [ 79147.128100000001723, 424473.399800000013784 ], [ 79325.8012000000017, 424422.0368 ], [ 79326.868900000001304, 424421.729899999976624 ], [ 79328.161099999997532, 424421.3291999999783 ], [ 79472.823300000003655, 424373.241199999989476 ], [ 79473.196100000001024, 424373.115 ], [ 79587.438200000004144, 424333.620899999979883 ], [ 79661.707299999994575, 424318.9743 ], [ 79730.031199999997625, 424328.677099999971688 ], [ 79797.960999999995693, 424358.8002 ], [ 79849.861000000004424, 424412.204900000011548 ], [ 79853.7883, 424416.7562 ], [ 79917.46809999999823, 424490.554 ], [ 79984.286900000006426, 424582.485900000028778 ], [ 79985.246100000003935, 424583.7413 ], [ 80047.937099999995553, 424661.8393 ], [ 80093.005900000003749, 424738.030199999979232 ], [ 80095.62390000000596, 424741.824000000022352 ], [ 80157.395099999994272, 424819.163999999989755 ], [ 80160.411999999996624, 424822.457 ], [ 80216.1682, 424875.6003 ], [ 80216.879100000005565, 424876.258099999977276 ], [ 80301.172000000005937, 424952.0072 ], [ 80304.8698, 424954.883199999982025 ], [ 80380.198099999994156, 425005.319299999973737 ], [ 80380.957800000003772, 425005.813100000028498 ], [ 80461.268899999995483, 425056.449199999973644 ], [ 80462.436199999996461, 425057.152200000011362 ], [ 80539.998000000006869, 425101.689200000022538 ], [ 80543.357900000002701, 425103.371999999973923 ], [ 80607.1302, 425130.8862 ], [ 80608.5199, 425131.448900000017602 ], [ 80729.449800000002142, 425177.228899999987334 ], [ 80731.2641, 425177.856000000028871 ], [ 80855.7158999999956, 425216.8592 ], [ 80886.5138, 425226.511300000012852 ], [ 80886.747199999997974, 425226.583900000026915 ], [ 81093.813200000004144, 425289.797100000025239 ], [ 81094.607199999998556, 425290.028799999970943 ], [ 81312.755000000004657, 425350.692800000018906 ], [ 81313.831099999995786, 425350.972200000018347 ], [ 81486.819900000002235, 425392.854899999976624 ], [ 81488.29309999999532, 425393.175999999977648 ], [ 81643.785000000003492, 425423.3761 ], [ 81646.131999999997788, 425423.7449 ], [ 81776.752999999996973, 425439.471200000029057 ], [ 81779.373200000001816, 425439.6812 ], [ 81879.024300000004587, 425443.684 ], [ 81987.188899999993737, 425448.0282 ], [ 82083.436199999996461, 425460.4302 ], [ 82176.592300000003888, 425494.1153 ], [ 82253.043000000005122, 425538.606000000028871 ], [ 82300.049, 425586.7391 ], [ 82339.333899999997811, 425645.2668999999878 ], [ 82339.583299999998417, 425645.633299999986775 ], [ 82385.33289999999397, 425711.849899999971967 ], [ 82385.759900000004563, 425712.453099999984261 ], [ 82427.84309999999823, 425770.537100000015926 ], [ 82432.256200000003446, 425775.4913 ], [ 82488.570999999996275, 425827.160199999983888 ], [ 82493.799799999993411, 425831.07929999998305 ], [ 82545.932199999995646, 425862.618000000016764 ], [ 82549.681200000006356, 425864.569299999973737 ], [ 82562.893299999996088, 425870.40500000002794 ], [ 82603.130799999998999, 425888.175999999977648 ], [ 82605.665800000002491, 425889.1728 ], [ 82657.840200000006007, 425907.238100000016857 ], [ 82663.723899999997229, 425908.6863 ], [ 82744.862099999998463, 425920.90490000002319 ], [ 82909.235799999994924, 425947.878199999977369 ], [ 83093.418999999994412, 425984.0648 ], [ 83372.642000000007101, 426047.866099999984726 ], [ 83375.155799999993178, 426048.636799999978393 ], [ 83605.662299999996321, 426119.301900000020396 ], [ 83606.149300000004587, 426119.446999999985565 ], [ 83720.106, 426152.47019999998156 ], [ 83726.064299999998184, 426153.616199999989476 ], [ 83786.213199999998324, 426159.525299999979325 ], [ 83787.913199999995413, 426159.6482 ], [ 83869.10899999999674, 426163.408300000010058 ], [ 83873.987899999992806, 426163.2731 ], [ 83965.190300000002026, 426153.9609 ], [ 83968.101299999994808, 426153.5319 ], [ 84053.605299999995623, 426137.003299999982119 ], [ 84056.08520000000135, 426136.4241 ], [ 84146.414000000004307, 426111.605900000024121 ], [ 84149.145000000004075, 426110.726000000024214 ], [ 84225.642200000002049, 426082.3579 ], [ 84226.607099999993807, 426081.9828 ], [ 84310.320099999997183, 426047.9153 ], [ 84310.978300000002491, 426047.639099999971222 ], [ 84377.510999999998603, 426018.870899999979883 ], [ 84377.9752, 426018.665800000017043 ], [ 84438.362099999998463, 425991.444200000027195 ], [ 84460.646999999997206, 425981.398899999971036 ], [ 84549.811100000006263, 425945.983799999987241 ], [ 84631.949900000006892, 425921.905199999979232 ], [ 84721.606899999998859, 425905.9891 ], [ 84795.969200000006822, 425904.604899999976624 ], [ 84877.788100000005215, 425944.526100000017323 ], [ 84917.54210000000603, 425977.48320000001695 ], [ 84984.094899999996414, 426054.6101 ], [ 85042.552299999995739, 426133.368200000026263 ], [ 85043.594800000006217, 426134.6998 ], [ 85084.045100000003004, 426183.73499999998603 ], [ 85088.657999999995809, 426188.319299999973737 ], [ 85154.379199999995762, 426241.863200000021607 ], [ 85159.063999999998487, 426245.052099999971688 ], [ 85231.1823, 426285.554 ], [ 85294.117199999993318, 426330.600199999986216 ], [ 85357.960999999995693, 426380.755200000014156 ], [ 85414.2782, 426439.76500000001397 ], [ 85414.83190000000468, 426440.331 ], [ 85488.243100000006962, 426513.647 ], [ 85488.276599999997416, 426513.6803 ], [ 85559.297000000005937, 426584.40500000002794 ], [ 85563.010200000004261, 426587.591000000014901 ], [ 85628.932100000005448, 426636.152200000011362 ], [ 85631.356, 426637.777300000016112 ], [ 85733.885800000003655, 426700.1372 ], [ 85825.179900000002817, 426758.004200000024866 ], [ 85913.799299999998766, 426822.699100000027101 ], [ 85943.114199999996345, 426850.26500000001397 ], [ 85998.9559, 426902.773999999975786 ], [ 86076.769, 426980.890300000028219 ], [ 86079.615000000005239, 426983.4349 ], [ 86176.8223, 427060.7009 ], [ 86178.1642, 427061.712899999984074 ], [ 86313.463000000003376, 427158.439200000022538 ], [ 86435.573199999998906, 427246.447999999974854 ], [ 86561.060200000007171, 427352.5122 ], [ 86561.849000000001979, 427353.1582 ], [ 86622.788100000005215, 427401.519199999980628 ], [ 86627.943899999998393, 427404.878299999982119 ], [ 86708.0968, 427447.024199999985285 ], [ 86711.771200000002864, 427448.6789 ], [ 86736.161200000002282, 427457.9119 ], [ 86766.337199999994482, 427469.335299999976996 ], [ 86770.819199999998091, 427470.6778 ], [ 86814.3459, 427480.410900000017136 ], [ 86821.656199999997625, 427481.206 ], [ 86879.055900000006659, 427481.0161 ], [ 86884.475000000005821, 427480.549999999988358 ], [ 86936.73399999999674, 427471.6693 ], [ 86937.737999999997555, 427471.483 ], [ 87001.636899999997695, 427458.5783 ], [ 87002.502299999992829, 427458.391300000017509 ], [ 87085.615099999995437, 427439.2721 ], [ 87085.987299999993411, 427439.184100000013132 ], [ 87232.5481, 427403.674999999988358 ], [ 87454.137000000002445, 427351.357299999974202 ], [ 87644.308300000004238, 427312.7731 ], [ 87783.918999999994412, 427284.4473 ], [ 87971.411300000007031, 427249.795099999988452 ], [ 88135.642099999997299, 427227.4523 ], [ 88237.303, 427226.6961 ], [ 88322.631099999998696, 427231.556900000025053 ], [ 88395.71820000000298, 427248.1151 ], [ 88457.848800000007031, 427270.070200000016484 ], [ 88525.912200000006123, 427309.959099999978207 ], [ 88589.4041, 427362.912100000015926 ], [ 88640.216199999995297, 427412.973899999982677 ], [ 88755.747099999993225, 427548.462 ], [ 88890.029999999998836, 427715.4791 ], [ 88958.8612, 427953.759299999976065 ], [ 88923.4274, 428086.99 ], [ 88922.536399999997229, 428090.341000000014901 ], [ 88922.574215485466993, 428090.313020266185049 ] ] ] } },
{ "type": "Feature", "properties": { "id": "Genormeerde_bodem__vlak_.238", "statusleg": "Vastgesteld", "datumvasts": "2022/07/04 00:00:00.000", "wijzigings": null, "rwsdienst": "WNZ", "waterlicha": "Spui", "genormeerd": null, "objectnaam": "Spui", "normtype": "Vaarweg", "normhoogte": -3.3, "gdb_geomat": null }, "geometry": { "type": "MultiLineString", "coordinates": [ [ [ 89175.492708007703186, 427911.158788078289945 ], [ 89175.606899999998859, 427911.0906 ], [ 89175.2981, 427911.042000000015832 ], [ 89151.642000000007101, 427907.327800000028219 ], [ 89075.9381, 427859.093 ], [ 88946.538, 427681.253099999972619 ], [ 88943.300199999997858, 427676.40480000001844 ], [ 88806.8851, 427506.73499999998603 ], [ 88806.27719999999681, 427506.00099999998929 ], [ 88689.50789999999688, 427369.0601 ], [ 88687.557799999995041, 427366.964199999987613 ], [ 88634.7509, 427314.9373 ], [ 88632.726899999994203, 427313.102100000018254 ], [ 88566.088900000002468, 427257.525199999974575 ], [ 88561.638000000006286, 427254.3971 ], [ 88488.5003, 427211.534999999974389 ], [ 88482.810100000002421, 427208.891200000012759 ], [ 88415.887900000001537, 427185.243000000016764 ], [ 88412.184299999993527, 427184.173100000014529 ], [ 88334.5389, 427166.5819 ], [ 88329.12390000000596, 427165.819299999973737 ], [ 88239.996, 427160.742299999983516 ], [ 88237.87390000000596, 427160.6901 ], [ 88133.039999999993597, 427161.47009999997681 ], [ 88128.837, 427161.770200000028126 ], [ 87961.737099999998463, 427184.503199999977369 ], [ 87960.1881, 427184.75189999997383 ], [ 87771.641099999993457, 427219.598899999982677 ], [ 87771.077000000004773, 427219.708099999988917 ], [ 87631.020799999998417, 427248.124300000024959 ], [ 87440.501000000003842, 427286.779199999989942 ], [ 87439.479900000005728, 427287.003199999977369 ], [ 87217.287299999996321, 427339.4633 ], [ 87217.100000000005821, 427339.508199999982025 ], [ 87070.632299999997485, 427374.995 ], [ 86988.137900000001537, 427393.972200000018347 ], [ 86925.173200000004726, 427406.688000000023749 ], [ 86876.108300000007148, 427415.025299999979325 ], [ 86825.138000000006286, 427415.194100000022445 ], [ 86787.510999999998603, 427406.780099999974482 ], [ 86758.445800000001327, 427395.777 ], [ 86737.026199999992969, 427387.668200000014622 ], [ 86661.395099999994272, 427347.900100000028033 ], [ 86603.275999999998021, 427301.7769 ], [ 86477.204899999996996, 427195.2182 ], [ 86475.197199999995064, 427193.650199999974575 ], [ 86352.002200000002631, 427104.8602 ], [ 86351.899300000004587, 427104.786199999973178 ], [ 86217.232099999993807, 427008.5111 ], [ 86122.179199999998673, 426932.957899999979418 ], [ 86045.334900000001653, 426855.8139 ], [ 86044.561100000006263, 426855.061999999976251 ], [ 85984.43399999999383, 426798.522899999981746 ], [ 85957.518899999995483, 426773.213899999973364 ], [ 85954.370200000004843, 426770.601100000028964 ], [ 85863.219899999996414, 426704.0588 ], [ 85861.429099999993923, 426702.839199999987613 ], [ 85768.962, 426644.229 ], [ 85768.443100000004051, 426643.907 ], [ 85666.900800000003073, 426582.1472 ], [ 85604.130099999994854, 426535.907300000020768 ], [ 85534.848199999993085, 426466.913999999989755 ], [ 85461.7509, 426393.911199999973178 ], [ 85404.076199999995879, 426333.480099999986123 ], [ 85400.58990000000631, 426330.3139 ], [ 85334.309999999997672, 426278.2449 ], [ 85333.130999999993946, 426277.3602 ], [ 85268.1259, 426230.8322 ], [ 85265.07730000000447, 426228.893900000024587 ], [ 85193.861799999998766, 426188.898899999971036 ], [ 85132.878200000006473, 426139.215099999972153 ], [ 85095.045199999993201, 426093.353 ], [ 85036.369099999996251, 426014.300899999972899 ], [ 85034.8551, 426012.409999999974389 ], [ 84965.710000000006403, 425932.278899999975692 ], [ 84961.787100000001374, 425928.432299999985844 ], [ 84916.8701, 425891.195100000011735 ], [ 84910.279299999994691, 425886.9422 ], [ 84817.770099999994272, 425841.804899999988265 ], [ 84814.5861, 425840.452899999974761 ], [ 84809.029899999994086, 425838.963999999978114 ], [ 84802.685100000002421, 425838.4682 ], [ 84717.78179999999702, 425840.049 ], [ 84712.627900000006775, 425840.551099999982398 ], [ 84618.633199999996577, 425857.237199999974109 ], [ 84615.118300000001909, 425858.061999999976251 ], [ 84529.772299999996903, 425883.080200000025798 ], [ 84526.8741, 425884.0783 ], [ 84435.587, 425920.3369 ], [ 84434.206999999994878, 425920.921299999987241 ], [ 84413.206999999994878, 425930.387999999977183 ], [ 84351.083100000003469, 425958.3921 ], [ 84285.111900000003516, 425986.9181 ], [ 84202.208899999997811, 426020.65590000001248 ], [ 84127.54309999999532, 426048.344900000025518 ], [ 84039.828099999998813, 426072.445 ], [ 83957.021200000002864, 426088.451899999985471 ], [ 83869.717999999993481, 426097.365999999979977 ], [ 83791.818100000004051, 426093.758199999982025 ], [ 83735.55000000000291, 426088.2302 ], [ 83624.763999999995576, 426056.12589999998454 ], [ 83393.944000000003143, 425985.364699999976438 ], [ 83390.837100000004284, 425984.412200000020675 ], [ 83388.51589999999851, 425983.792200000025332 ], [ 83107.627900000006775, 425919.6101 ], [ 83106.638900000005378, 425919.400100000028033 ], [ 82921.4519, 425883.0168999999878 ], [ 82920.433900000003632, 425882.833099999988917 ], [ 82755.335099999996601, 425855.740800000028685 ], [ 82754.905100000003586, 425855.673 ], [ 82676.559999999997672, 425843.8752 ], [ 82628.548200000004726, 425827.2512 ], [ 82601.125199999994948, 425815.14000000001397 ], [ 82578.282999999995809, 425805.051199999987148 ], [ 82530.771299999993062, 425776.308299999975134 ], [ 82479.333100000003469, 425729.1139 ], [ 82439.422999999995227, 425674.029199999989942 ], [ 82394.009900000004563, 425608.299799999978859 ], [ 82353.166899999996531, 425547.450300000025891 ], [ 82349.37609999999404, 425542.785299999988638 ], [ 82297.127800000002026, 425489.283899999980349 ], [ 82290.116299999994226, 425483.818199999979697 ], [ 82207.214099999997416, 425435.573099999979604 ], [ 82201.8373, 425433.061899999971502 ], [ 82102.4709, 425397.130899999989197 ], [ 82095.466199999995297, 425395.435 ], [ 81994.1823, 425382.383900000015274 ], [ 81991.2892, 425382.1399 ], [ 81881.6731, 425377.737100000027567 ], [ 81783.33629999999539, 425373.787200000020675 ], [ 81655.201799999995274, 425358.3601 ], [ 81501.617199999993318, 425328.530299999983981 ], [ 81329.902100000006612, 425286.956300000019837 ], [ 81112.688200000004144, 425226.552199999976438 ], [ 80906.1342, 425163.4952 ], [ 80874.413199999995413, 425153.554 ], [ 80751.9182, 425115.163799999980256 ], [ 80632.587899999998626, 425069.9891 ], [ 80571.231199999994715, 425043.5171 ], [ 80495.892800000001444, 425000.2562 ], [ 80416.541200000006938, 424950.225099999981467 ], [ 80343.540200000003097, 424901.347200000018347 ], [ 80261.354099999996834, 424827.491199999989476 ], [ 80207.568199999994249, 424776.226100000028964 ], [ 80148.635299999994459, 424702.4401 ], [ 80103.546100000006845, 424626.214099999982864 ], [ 80100.877900000006775, 424622.357299999974202 ], [ 80037.210000000006403, 424543.0428 ], [ 79970.046100000006845, 424450.636 ], [ 79968.33629999999539, 424448.479 ], [ 79899.191200000001118, 424368.347300000023097 ], [ 79899.06359999999404, 424368.207999999984168 ], [ 79897.872799999997369, 424366.90779999998631 ], [ 79840.8413, 424308.2231 ], [ 79838.388099999996484, 424305.9423 ], [ 79830.5533, 424301.0551 ], [ 79752.591799999994691, 424266.4831000000122 ], [ 79743.854000000006636, 424263.9779 ], [ 79665.449900000006892, 424252.843899999978021 ], [ 79654.425099999993108, 424253.139299999980722 ], [ 79572.429099999993923, 424269.309300000022631 ], [ 79568.03179999999702, 424270.497099999978673 ], [ 79451.817899999994552, 424310.673 ], [ 79312.38289999999688, 424357.0233 ], [ 79307.98399999999674, 424358.485800000024028 ], [ 79130.699200000002747, 424409.449199999973644 ], [ 78981.316300000005867, 424434.5051 ], [ 78981.182, 424434.528 ], [ 78820.16710000000603, 424462.219800000020768 ], [ 78699.268299999996088, 424473.1619 ], [ 78694.845000000001164, 424473.867199999978766 ], [ 78567.471099999995204, 424503.168899999989662 ], [ 78464.425900000002002, 424526.425899999972899 ], [ 78359.838900000002468, 424549.140300000028219 ], [ 78357.836200000005192, 424549.641300000017509 ], [ 78241.615900000004331, 424582.612000000022817 ], [ 78174.057199999995646, 424597.72009999997681 ], [ 78086.219899999996414, 424608.757999999972526 ], [ 78020.806899999995949, 424613.378000000026077 ], [ 77952.987899999992806, 424612.993100000021514 ], [ 77879.499200000005658, 424597.848300000012387 ], [ 77812.86689999999362, 424577.472200000018347 ], [ 77753.843299999993178, 424553.506899999978486 ], [ 77676.39419999999518, 424516.004200000024866 ], [ 77612.016900000002352, 424477.104 ], [ 77536.733900000006543, 424419.4742 ], [ 77518.350300000005518, 424401.146200000017416 ], [ 77480.280100000003586, 424363.19 ], [ 77429.915900000007241, 424292.073299999989104 ], [ 77387.2362, 424197.395000000018626 ], [ 77387.0579, 424197.005200000014156 ], [ 77350.757199999992736, 424119.1912 ], [ 77350.208299999998417, 424118.070300000021234 ], [ 77290.038100000005215, 424000.8701 ], [ 77288.428, 423998.07819999998901 ], [ 77210.9188, 423877.6861 ], [ 77209.66710000000603, 423875.877900000021327 ], [ 77106.929000000003725, 423737.504200000024866 ], [ 77106.8171, 423737.3543 ], [ 76972.433300000004238, 423558.486900000018068 ], [ 76838.074800000002142, 423373.63 ], [ 76729.318899999998393, 423196.96999999997206 ], [ 76706.285499999998137, 423157.457400000013877 ], [ 76632.405199999993783, 423030.718999999982771 ], [ 76631.295899999997346, 423028.946899999980815 ], [ 76614.637900000001537, 423004.129100000020117 ], [ 76508.722200000003795, 422846.3332 ], [ 76487.78519999999844, 422812.609400000015739 ], [ 76424.997399999992922, 422711.474800000025425 ], [ 76349.930300000007264, 422561.081200000015087 ], [ 76348.962199999994482, 422559.2831 ], [ 76282.692599999994854, 422444.8321 ], [ 76281.66030000000319, 422443.1654 ], [ 76189.44550000000163, 422303.71750000002794 ], [ 76187.290200000003097, 422300.816899999976158 ], [ 76125.876999999993131, 422226.984699999971781 ], [ 76121.170599999997648, 422222.358499999972992 ], [ 76065.572199999995064, 422177.705399999977089 ], [ 76061.593599999992875, 422174.963600000017323 ], [ 75988.4562, 422132.101399999985006 ], [ 75982.541800000006333, 422129.379599999985658 ], [ 75931.8419, 422111.8724 ], [ 75924.280100000003586, 422110.221599999989849 ], [ 75846.23399999999674, 422102.59529999998631 ], [ 75835.2396, 422103.3703 ], [ 75764.683399999994435, 422120.4988 ], [ 75757.878100000001723, 422122.9681 ], [ 75699.836200000005192, 422151.5785 ], [ 75695.529299999994691, 422154.124300000024959 ], [ 75631.3462, 422198.9571 ], [ 75627.6385, 422201.968600000021979 ], [ 75573.297000000005937, 422253.061999999976251 ], [ 75499.7841000000044, 422315.2082 ], [ 75437.190300000002026, 422366.3433 ], [ 75383.146299999993062, 422406.036199999973178 ], [ 75307.756599999993341, 422450.630799999984447 ], [ 75219.233300000007148, 422491.738399999972899 ], [ 75218.885299999994459, 422491.902500000025611 ], [ 75087.095400000005611, 422554.9803 ], [ 75087.032999999995809, 422555.010300000023562 ], [ 75006.627500000002328, 422593.701799999980722 ], [ 75006.369399999995949, 422593.82750000001397 ], [ 74964.094200000006822, 422614.625400000018999 ], [ 74918.477499999993597, 422637.0673 ], [ 74834.657699999996112, 422670.150199999974575 ], [ 74749.945800000001327, 422690.5097 ], [ 74635.838199999998324, 422716.3114 ], [ 74631.732600000003004, 422717.5244 ], [ 74544.314499999993131, 422749.652400000020862 ], [ 74445.806800000005751, 422780.748499999986961 ], [ 74330.506599999993341, 422814.431700000015553 ], [ 74329.225399999995716, 422814.8344 ], [ 74233.579800000006799, 422847.0539 ], [ 74093.826499999995576, 422884.5501 ], [ 74091.788799999994808, 422885.168 ], [ 73907.150500000003376, 422947.7241 ], [ 73795.723199999993085, 422977.3578 ], [ 73790.429999999993015, 422979.261600000027101 ], [ 73288.53509999999369, 423147.9681 ], [ 73005.591, 423395.0858 ], [ 73005.950930304985377, 423395.435196183854714 ] ] ] } }
]
}
